{
  "type": "FeatureCollection",
  "features": [
    {
      "type": "Feature",
      "properties": {
        "norad_id": 41581,
        "name": "INTELSAT 31 (IS-31)",
        "group": "intelsat",
        "lat": -0.026927850311641018,
        "lon": -146.10743192469488,
        "alt_km": 35778.05279734997,
        "timestamp": "2025-12-20T14:38:01.626489+00:00",
        "meta_object_name": "INTELSAT 31 (IS-31)",
        "meta_object_id": "2016-035A",
        "meta_epoch": "2025-12-20T05:04:10.677216",
        "meta_mean_motion": 1.00271438,
        "meta_eccentricity": 0.00019648,
        "meta_inclination": 0.0255,
        "meta_ra_of_asc_node": 272.537,
        "meta_arg_of_pericenter": 291.8357,
        "meta_mean_anomaly": 225.6712,
        "meta_ephemeris_type": 0,
        "meta_classification_type": "U",
        "meta_norad_cat_id": 41581,
        "meta_element_set_no": 999,
        "meta_rev_at_epoch": 3488,
        "meta_bstar": 0,
        "meta_mean_motion_dot": -1.27e-06,
        "meta_mean_motion_ddot": 0,
        "tle_line1": "1 41581U 16035A   25354.21123469 -.00000127  00000+0  00000+0 0  9990",
        "tle_line2": "2 41581   0.0255 272.5370 0001964 291.8357 225.6712  1.00271438 34888"
      },
      "geometry": {
        "type": "Point",
        "coordinates": [
          -146.10743192469488,
          -0.026927850311641018
        ]
      }
    },
    {
      "type": "Feature",
      "properties": {
        "norad_id": 41747,
        "name": "INTELSAT 36 (IS-36)",
        "group": "intelsat",
        "lat": 0.012817160800123748,
        "lon": 17.43091866891785,
        "alt_km": 35782.739635213125,
        "timestamp": "2025-12-20T14:38:01.626500+00:00",
        "meta_object_name": "INTELSAT 36 (IS-36)",
        "meta_object_id": "2016-053A",
        "meta_epoch": "2025-12-19T22:08:53.365632",
        "meta_mean_motion": 1.00270121,
        "meta_eccentricity": 0.00011718,
        "meta_inclination": 0.0108,
        "meta_ra_of_asc_node": 359.0109,
        "meta_arg_of_pericenter": 338.9337,
        "meta_mean_anomaly": 151.5298,
        "meta_ephemeris_type": 0,
        "meta_classification_type": "U",
        "meta_norad_cat_id": 41747,
        "meta_element_set_no": 999,
        "meta_rev_at_epoch": 3415,
        "meta_bstar": 0,
        "meta_mean_motion_dot": 0,
        "meta_mean_motion_ddot": 0,
        "tle_line1": "1 41747U 16053A   25353.92283988  .00000000  00000+0  00000+0 0  9993",
        "tle_line2": "2 41747   0.0108 359.0109 0001171 338.9337 151.5298  1.00270121 34155"
      },
      "geometry": {
        "type": "Point",
        "coordinates": [
          17.43091866891785,
          0.012817160800123748
        ]
      }
    },
    {
      "type": "Feature",
      "properties": {
        "norad_id": 41945,
        "name": "INTELSAT 32E (IS-32E)",
        "group": "intelsat",
        "lat": -0.02750162202673327,
        "lon": -94.26004445507832,
        "alt_km": 35788.45326603672,
        "timestamp": "2025-12-20T14:38:01.626512+00:00",
        "meta_object_name": "INTELSAT 32E (IS-32E)",
        "meta_object_id": "2017-007B",
        "meta_epoch": "2025-12-19T06:12:37.307232",
        "meta_mean_motion": 1.00269829,
        "meta_eccentricity": 7.1e-05,
        "meta_inclination": 0.0325,
        "meta_ra_of_asc_node": 74.0804,
        "meta_arg_of_pericenter": 315.5885,
        "meta_mean_anomaly": 108.4146,
        "meta_ephemeris_type": 0,
        "meta_classification_type": "U",
        "meta_norad_cat_id": 41945,
        "meta_element_set_no": 999,
        "meta_rev_at_epoch": 3242,
        "meta_bstar": 0,
        "meta_mean_motion_dot": -2.44e-06,
        "meta_mean_motion_ddot": 0,
        "tle_line1": "1 41945U 17007B   25353.25876513 -.00000244  00000+0  00000+0 0  9992",
        "tle_line2": "2 41945   0.0325  74.0804 0000710 315.5885 108.4146  1.00269829 32423"
      },
      "geometry": {
        "type": "Point",
        "coordinates": [
          -94.26004445507832,
          -0.02750162202673327
        ]
      }
    },
    {
      "type": "Feature",
      "properties": {
        "norad_id": 42818,
        "name": "INTELSAT 35E (IS-35E)",
        "group": "intelsat",
        "lat": -0.04391771672140388,
        "lon": -85.54802723676329,
        "alt_km": 35778.47884525578,
        "timestamp": "2025-12-20T14:38:01.626524+00:00",
        "meta_object_name": "INTELSAT 35E (IS-35E)",
        "meta_object_id": "2017-041A",
        "meta_epoch": "2025-12-20T02:47:38.582592",
        "meta_mean_motion": 1.00271193,
        "meta_eccentricity": 0.00018472,
        "meta_inclination": 0.0187,
        "meta_ra_of_asc_node": 21.3216,
        "meta_arg_of_pericenter": 250.2139,
        "meta_mean_anomaly": 184.8437,
        "meta_ephemeris_type": 0,
        "meta_classification_type": "U",
        "meta_norad_cat_id": 42818,
        "meta_element_set_no": 999,
        "meta_rev_at_epoch": 3102,
        "meta_bstar": 0,
        "meta_mean_motion_dot": -2.14e-06,
        "meta_mean_motion_ddot": 0,
        "tle_line1": "1 42818U 17041A   25354.11641878 -.00000214  00000+0  00000+0 0  9997",
        "tle_line2": "2 42818   0.0187  21.3216 0001847 250.2139 184.8437  1.00271193 31023"
      },
      "geometry": {
        "type": "Point",
        "coordinates": [
          -85.54802723676329,
          -0.04391771672140388
        ]
      }
    },
    {
      "type": "Feature",
      "properties": {
        "norad_id": 42950,
        "name": "INTELSAT 37E (IS-37E)",
        "group": "intelsat",
        "lat": -0.04352830286889265,
        "lon": -69.04903589787385,
        "alt_km": 35775.72867053081,
        "timestamp": "2025-12-20T14:38:01.626535+00:00",
        "meta_object_name": "INTELSAT 37E (IS-37E)",
        "meta_object_id": "2017-059A",
        "meta_epoch": "2025-12-20T04:35:05.791200",
        "meta_mean_motion": 1.00270811,
        "meta_eccentricity": 0.00029565,
        "meta_inclination": 0.0195,
        "meta_ra_of_asc_node": 27.509,
        "meta_arg_of_pericenter": 231.5247,
        "meta_mean_anomaly": 240.7649,
        "meta_ephemeris_type": 0,
        "meta_classification_type": "U",
        "meta_norad_cat_id": 42950,
        "meta_element_set_no": 999,
        "meta_rev_at_epoch": 3027,
        "meta_bstar": 0,
        "meta_mean_motion_dot": -1.17e-06,
        "meta_mean_motion_ddot": 0,
        "tle_line1": "1 42950U 17059A   25354.19103925 -.00000117  00000+0  00000+0 0  9999",
        "tle_line2": "2 42950   0.0195  27.5090 0002956 231.5247 240.7649  1.00270811 30270"
      },
      "geometry": {
        "type": "Point",
        "coordinates": [
          -69.04903589787385,
          -0.04352830286889265
        ]
      }
    },
    {
      "type": "Feature",
      "properties": {
        "norad_id": 43632,
        "name": "AZERSPACE 2 (IS-38)",
        "group": "intelsat",
        "lat": -0.012193720294385554,
        "lon": -5.934270404515268,
        "alt_km": 35785.578158197015,
        "timestamp": "2025-12-20T14:38:01.626547+00:00",
        "meta_object_name": "AZERSPACE 2 (IS-38)",
        "meta_object_id": "2018-074A",
        "meta_epoch": "2025-12-20T04:53:04.070976",
        "meta_mean_motion": 1.00270817,
        "meta_eccentricity": 0.00011624,
        "meta_inclination": 0.0082,
        "meta_ra_of_asc_node": 42.9819,
        "meta_arg_of_pericenter": 229.623,
        "meta_mean_anomaly": 294.8181,
        "meta_ephemeris_type": 0,
        "meta_classification_type": "U",
        "meta_norad_cat_id": 43632,
        "meta_element_set_no": 999,
        "meta_rev_at_epoch": 2665,
        "meta_bstar": 0,
        "meta_mean_motion_dot": 1.6e-06,
        "meta_mean_motion_ddot": 0,
        "tle_line1": "1 43632U 18074A   25354.20351934  .00000160  00000+0  00000+0 0  9999",
        "tle_line2": "2 43632   0.0082  42.9819 0001162 229.6230 294.8181  1.00270817 26655"
      },
      "geometry": {
        "type": "Point",
        "coordinates": [
          -5.934270404515268,
          -0.012193720294385554
        ]
      }
    },
    {
      "type": "Feature",
      "properties": {
        "norad_id": 43633,
        "name": "HORIZONS-3E",
        "group": "intelsat",
        "lat": -0.0039626752124666985,
        "lon": 117.91065540948404,
        "alt_km": 35789.21198468027,
        "timestamp": "2025-12-20T14:38:01.626558+00:00",
        "meta_object_name": "HORIZONS-3E",
        "meta_object_id": "2018-074B",
        "meta_epoch": "2025-12-20T03:45:48.013344",
        "meta_mean_motion": 1.00269734,
        "meta_eccentricity": 6.113e-05,
        "meta_inclination": 0.0094,
        "meta_ra_of_asc_node": 239.0964,
        "meta_arg_of_pericenter": 65.1042,
        "meta_mean_anomaly": 10.2189,
        "meta_ephemeris_type": 0,
        "meta_classification_type": "U",
        "meta_norad_cat_id": 43633,
        "meta_element_set_no": 999,
        "meta_rev_at_epoch": 2654,
        "meta_bstar": 0,
        "meta_mean_motion_dot": 0,
        "meta_mean_motion_ddot": 0,
        "tle_line1": "1 43633U 18074B   25354.15680571  .00000000  00000+0  00000+0 0  9999",
        "tle_line2": "2 43633   0.0094 239.0964 0000611  65.1042  10.2189  1.00269734 26543"
      },
      "geometry": {
        "type": "Point",
        "coordinates": [
          117.91065540948404,
          -0.0039626752124666985
        ]
      }
    }
  ]
}